FLOCK 4S-18             
1 47496U 21006CM  21121.45456944  .00001138  00000-0  68827-4 0  9995
2 47496  97.5001 183.5668 0009302 259.8620 100.1562 15.12614497 14940
FLOCK 4S-26             
1 47497U 21006CN  21121.45254563  .00002329  00000-0  13676-3 0  9993
2 47497  97.4897 183.4429 0009404 260.1388  99.8781 15.12670222 14941
FLOCK 4S-2              
1 47498U 21006CP  21121.45118129  .00001522  00000-0  90412-4 0  9999
2 47498  97.4902 183.4451 0008976 256.8162 103.2068 15.12763304 14941
FLOCK 4S-40             
1 47499U 21006CQ  21121.38637411  .00002632  00000-0  15403-3 0  9991
2 47499  97.4993 183.5017 0009466 261.0568  98.9591 15.12679734 14937
FLOCK 4S-19             
1 47500U 21006CR  21121.11908743  .00001550  00000-0  91997-4 0  9995
2 47500  97.5000 183.2436 0009472 259.9513 100.0649 15.12776988 14898
KEPLER-10 (BABY YODA)   
1 47501U 21006CS  21121.45017972  .00002471  00000-0  14459-3 0  9998
2 47501  97.5003 183.5832 0009295 257.1048 102.9145 15.12734912 14940
HAWK-2C                 
1 47502U 21006CT  21121.47936895  .00000601  00000-0  38552-4 0  9999
2 47502  97.4917 183.4252 0008967 270.3122  89.7081 15.12180732 14940
KEPLER-11 (DANEEL)      
1 47503U 21006CU  21121.40842036  .00000928  00000-0  57312-4 0  9993
2 47503  97.4952 183.4167 0007927 274.8901  85.1425 15.12292802 14937
ION SCV-002             
1 47504U 21006CV  21121.32035991  .00000474  00000-0  29682-4 0  9994
2 47504  97.3807 183.2745 0014943 260.5428  99.4115 15.13882187 14923
HAWK-2A                 
1 47505U 21006CW  21121.47957421  .00000596  00000-0  38226-4 0  9991
2 47505  97.4918 183.5154 0008981 270.0548  89.9653 15.12177326 14943
ICEYE-X9                
1 47506U 21006CX  21121.56818142  .00001535  00000-0  92391-4 0  9995
2 47506  97.4972 183.5833 0007958 268.6979 227.5551 15.12274667 14956
XR-1                    
1 47507U 21006CY  21121.47771663  .00001127  00000-0  68863-4 0  9996
2 47507  97.4985 183.5162 0007990 267.3732  92.6584 15.12264241 14948
HAWK-2B                 
1 47508U 21006CZ  21121.47975025  .00000596  00000-0  38235-4 0  9994
2 47508  97.4918 183.4254 0009051 270.0642  89.9551 15.12178497 14947
GHGSAT-C2               
1 47509U 21006DA  21121.48891892  .00000605  00000-0  38921-4 0  9998
2 47509  97.4861 183.3416 0007581 268.9346  91.1016 15.12037772 14948
ICEYE-X8                
1 47510U 21006DB  21121.51010101  .00001707  00000-0  10289-3 0  9990
2 47510  97.4941 183.4529 0006876 266.5112 205.8345 15.12079089 14942
LEMUR-2-RUAIRI-EILIDH   
1 47511U 21006DC  21121.42307681  .00001733  00000-0  10429-3 0  9998
2 47511  97.4917 183.3410 0006853 267.9864  92.0582 15.12130630 14936
FLOCK 4S-38             
1 47512U 21006DD  21121.49128965  .00002047  00000-0  12242-3 0  9996
2 47512  97.4998 183.5242 0007042 271.2048  88.8376 15.12160364 14946
FLOCK 4S-28             
1 47514U 21006DE  21121.49219948  .00002120  00000-0  12666-3 0  9992
2 47514  97.4891 183.3834 0006972 271.4424  88.6008 15.12151849 15901
FLOCK 4S-5              
1 47515U 21006DF  21121.42586767  .00002510  00000-0  14925-3 0  9995
2 47515  97.4885 183.3124 0007320 273.9398  86.0996 15.12157906 14932
FLOCK 4S-16             
1 47516U 21006DG  21121.49459670  .00002100  00000-0  12564-3 0  9997
2 47516  97.5002 183.5231 0007090 274.3859  85.6562 15.12112180 15904
ASTROCAST-0105          
1 47517U 21006DH  21121.43667610  .00000648  00000-0  41645-4 0  9995
2 47517  97.4891 183.2960 0006369 273.8515  86.1987 15.11812552 14935
FLOCK 4S-6              
1 47518U 21006DJ  21121.42945425  .00002197  00000-0  13131-3 0  9997
2 47518  97.4896 183.3202 0007190 275.5449  84.4961 15.12092563 15903
ASTROCAST-0104          
1 47519U 21006DK  21121.43537788  .00000992  00000-0  61705-4 0  9990
2 47519  97.4941 183.3598 0008358 251.5996 108.4325 15.11887108 14930
FLOCK 4S-29             
1 47520U 21006DL  21121.49658824  .00002086  00000-0  12491-3 0  9996
2 47520  97.4902 183.3906 0006681 272.8229  87.2237 15.12082964 14949
FLOCK 4S-15             
1 47521U 21006DM  21121.43073854  .00002934  00000-0  17401-3 0  9993
2 47521  97.4996 183.4483 0007070 275.3944  84.6480 15.12119514 15909
FLOCK 4S-37             
1 47522U 21006DN  21121.43180881  .00002368  00000-0  14139-3 0  9999
2 47522  97.4990 183.4390 0006755 274.1976  85.8482 15.12061063 15902
FLOCK 4S-10             
1 47523U 21006DP  21121.44057071  .00002733  00000-0  16323-3 0  9998
2 47523  97.4924 183.3421 0006857 280.9351  79.1108 15.11920141 14932
LEMUR-2-JENNIFERSONG    
1 47525U 21006DR  21121.43988760  .00001988  00000-0  11650-3 0  9996
2 47525  97.4927 183.4936 0010044 263.1316  96.8773 15.12913788 14941
KEPLER-14 (STELLA)      
1 47526U 21006DS  21121.43356036  .00001541  00000-0  93646-4 0  9993
2 47526  97.4893 183.3047 0007041 276.3213  83.7216 15.11939195 15892
FLOCK 4S-7              
1 47527U 21006DT  21121.49830664  .00002237  00000-0  13381-3 0  9994
2 47527  97.4897 183.3844 0007078 276.3616  83.6808 15.12054014 15906
FLOCK 4S-14             
1 47528U 21006DU  21121.49846363  .00002341  00000-0  13984-3 0  9993
2 47528  97.4992 183.5049 0006933 275.9596  84.0844 15.12053650 15903
LEMUR-2-CHANTAL         
1 47529U 21006DV  21121.43291704  .00001561  00000-0  94773-4 0  9990
2 47529  97.4928 183.3427 0006207 268.9278  91.1241 15.11956585 15890
FLOCK 4S-36             
1 47530U 21006DW  21121.49999797  .00002373  00000-0  14181-3 0  9991
2 47530  97.4983 183.4935 0006415 273.0858  86.9639 15.12029172 15909
KEPLER-9 (ARTEMIS)      
1 47531U 21006DX  21121.43541559  .00001544  00000-0  93845-4 0  9999
2 47531  97.5006 183.4467 0007315 280.2480  79.7926 15.11920068 15898
YAOGAN-31 D             
1 47532U 21007A   21121.53837131 -.00000031  00000-0  10000-3 0  9998
2 47532  63.4066 272.1244 0011311 310.3487  49.6541 13.45210652 12419
YAOGAN-31 E             
1 47533U 21007B   21121.53838776 -.00000031  00000-0  10000-3 0  9995
2 47533  63.4062 271.2315 0011507 311.7641  48.2389 13.45211301 12438
YAOGAN-31 F             
1 47536U 21007E   21121.53818210 -.00000031  00000-0  10000-3 0  9999
2 47536  63.4061 271.2324 0011294 310.5376  49.4659 13.45210814 12436
LEMUR-2-NOOBNOOB        
1 47538U 21006DY  21121.44497105  .00001761  00000-0  10386-3 0  9993
2 47538  97.4987 183.5615 0009776 263.4645  96.5473 15.12825982 14946
FLOCK 4S-24             
1 47539U 21006DZ  21121.50906628  .00001840  00000-0  10826-3 0  9993
2 47539  97.4931 183.5563 0009890 257.8178 102.1945 15.12852676 14952
FLOCK 4S-20             
1 47540U 21006EA  21121.24693976  .00001845  00000-0  10860-3 0  9998
2 47540  97.4980 183.3644 0009566 258.6395 101.3761 15.12844635 13981
HIBER-4                 
1 47541U 21006EB  21121.44795922  .00001409  00000-0  84068-4 0  9993
2 47541  97.4903 183.4488 0009884 261.5986  98.4125 15.12732060 14941
FLOCK 4S-25             
1 47542U 21006EC  21121.24965120  .00001765  00000-0  10412-3 0  9997
2 47542  97.4907 183.2641 0009519 260.0728  99.9429 15.12811922 13989
FLOCK 4S-1              
1 47543U 21006ED  21121.44870582  .00001533  00000-0  90928-4 0  9991
2 47543  97.4909 183.4575 0009043 256.1386 103.8839 15.12813256 14015
FLOCK 4S-30             
1 47544U 21006EE  21121.43155662  .00002628  00000-0  15649-3 0  9998
2 47544  97.4910 183.3343 0006616 273.8694  86.1780 15.12069864 15894
FLOCK 4S-23             
1 47545U 21006EF  21121.44250595  .00001555  00000-0  92010-4 0  9997
2 47545  97.4937 183.5048 0009897 257.4092 102.6032 15.12882074 15915
COSMOS 2549             
1 47546U 21008A   21121.58385794 -.00000093  00000-0 -12471-4 0  9996
2 47546  67.1477 217.1444 0006273 257.6986 102.3408 13.96671856 12300
STARLINK-1782           
1 47548U 21009A   21121.58334491 -.00498834  00000-0 -64569-2 0  9994
2 47548  53.0547  61.3848 0004799 285.9821 135.8081 15.59890280  1822
STARLINK-1806           
1 47549U 21009B   21121.58334491  .00041068  00000-0  45253-3 0  9996
2 47549  53.0540  61.3487 0003828   4.5316  72.6160 15.62721953  1821
STARLINK-1909           
1 47550U 21009C   21121.58334491 -.00030737  00000-0 -33083-3 0  9999
2 47550  53.0558  61.3341 0003522   7.1452  80.7882 15.62765711  1823
STARLINK-1938           
1 47551U 21009D   21121.58334491 -.01075754  00000-0 -34177-1 0  9992
2 47551  53.0556  62.6247 0001345  81.2109 104.1508 15.34883998  1816
STARLINK-1940           
1 47552U 21009E   21121.58334491 -.00055277  00000-0 -60156-3 0  9998
2 47552  53.0541  61.3543 0003789   1.4106  73.8557 15.62759464  1829
STARLINK-1951           
1 47553U 21009F   21121.58334491 -.00426158  00000-0 -61065-2 0  9998
2 47553  53.0594  61.4889 0003437 273.2974  98.1627 15.56984002  1823
STARLINK-1953           
1 47554U 21009G   21121.58334491 -.00466964  00000-0 -24308-1 0  9996
2 47554  53.0535  71.9192 0004026   2.6385 169.3656 15.17779064  2019
STARLINK-1954           
1 47555U 21009H   21121.58334491 -.01077005  00000-0 -33260-1 0  9999
2 47555  53.0582  62.6424 0001323  75.4740 150.1614 15.35768346  2021
STARLINK-1955           
1 47556U 21009J   21121.58334491 -.00000528  00000-0 -16578-4 0  9991
2 47556  53.0558  81.3897 0001655  51.8728 302.9476 15.06395129  2003
STARLINK-1956           
1 47557U 21009K   21121.58334491 -.00029836  00000-0 -19913-2 0  9999
2 47557  53.0561  81.3853 0002073  63.9831 130.7756 15.06420659  1806
STARLINK-1957           
1 47558U 21009L   21121.58334491  .00000023  00000-0  61287-5 0  9999
2 47558  53.0543  61.3442 0004296   1.6872  80.4142 15.62748745  2039
STARLINK-1958           
1 47559U 21009M   21121.58334491  .00000116  00000-0  71404-5 0  9995
2 47559  53.0542  61.3228 0004202   2.2907  87.4409 15.62748696  2032
STARLINK-1959           
1 47560U 21009N   21121.58334491 -.00000069  00000-0  51092-5 0  9996
2 47560  53.0559  61.3261 0003365   9.2054  81.8239 15.62748948  2037
